365P/PANSTARRS,e,9.8365,87.4070,66.2172,3.179462,0.1738495,0.57522568,158.5095,08/11.0/2020,2000,g 17.0,4.0
# From MPC114610
366P/Spacewatch,e,8.8595,70.7539,153.1697,3.495579,0.1508084,0.34851326,113.3884,08/11.0/2020,2000,g 15.0,4.0
# From MPC112395
367P/Catalina,e,8.4636,58.7161,172.9266,3.505179,0.1501892,0.28055429,117.3937,08/11.0/2020,2000,g 17.5,2.0
# From MPC114610
368P/NEAT,e,15.4833,257.9679,118.7756,5.526518,0.0758624,0.62614257,52.8489,08/11.0/2020,2000,g 14.0,4.0
# From MPC114610
369P/Hill,e,10.3102,47.3049,13.2136,4.386124,0.1072958,0.55416246,71.4553,08/11.0/2020,2000,g 15.0,4.0
# From MPC114610
370P/NEAT,e,19.3994,55.1401,356.7018,6.436974,0.0603506,0.61434096,47.8965,08/11.0/2020,2000,g 13.0,4.0
# From MPC114610
371P/LINEAR-Skiff,e,17.3776,67.3229,308.4502,4.181390,0.1152718,0.47636227,77.9616,08/11.0/2020,2000,g 16.0,4.0
# From MPEC 2020-N31
372P/McNaught,e,9.5097,325.8195,27.1450,4.502495,0.1031631,0.15255653,68.1062,08/11.0/2020,2000,g 13.5,4.0
# From MPC114610
373P/Rinner,e,13.7587,231.9504,221.1513,3.805115,0.1327860,0.39217626,65.0750,08/11.0/2020,2000,g 14.5,4.0
# From MPC114610
374P/Larson,e,10.7603,7.9152,51.5366,4.975257,0.0888139,0.46230089,51.3634,08/11.0/2020,2000,g 14.0,4.0
# From MPC114610
375P/Hill,e,17.3617,359.9479,119.4735,5.559606,0.0751862,0.65884175,45.0142,08/11.0/2020,2000,g 16.0,4.0
# From MPEC 2020-N31
376P/LONEOS,e,1.1938,314.8328,285.2818,5.871092,0.0692829,0.51832764,21.9837,08/11.0/2020,2000,g 12.5,4.0
# From MPEC 2020-N31
377P/Scotti,e,9.0223,226.0589,354.9652,6.713017,0.0566666,0.25267813,1.7432,08/11.0/2020,2000,g  9.5,4.0
# From MPEC 2019-TG9
378P/McNaught,e,19.1050,94.5175,194.1083,6.373335,0.0612568,0.46954509,355.6371,08/11.0/2020,2000,g 12.0,4.0
# From MPC115889
379P/Spacewatch,e,12.3900,183.9218,31.2496,3.528293,0.1487158,0.33906697,55.8357,08/11.0/2020,2000,g 15.0,4.0
# From MPEC 2020-KB7
380P/PANSTARRS,e,8.2587,132.9824,89.9873,4.545269,0.1017103,0.33021638,43.8776,08/11.0/2020,2000,g 12.5,4.0
# From MPEC 2019-TG9
381P/LINEAR-Spacewatch,e,28.3752,173.7853,173.1184,7.116943,0.0519115,0.68165765,16.5629,08/11.0/2020,2000,g 17.5,2.0
# From MPC115889
382P/Larson,e,7.6819,177.1460,174.2321,6.238115,0.0632592,0.29895009,321.3497,08/11.0/2020,2000,g  8.0,4.0
# From MPC118844
383P/Christensen,e,12.3214,207.8921,133.6364,3.544055,0.1477248,0.59952779,42.8057,08/11.0/2020,2000,g 18.0,4.0
# From MPEC 2020-C98
384P/Kowalski,e,7.2820,354.2264,37.6394,2.901540,0.1994166,0.61535154,60.7380,08/11.0/2020,2000,g 19.5,4.0
# From MPEC 2020-C98
385P/Hill,e,16.8267,357.0694,44.3290,4.287970,0.1110009,0.40126164,36.7657,08/11.0/2020,2000,g 13.0,4.0
# From MPEC 2020-C98
386P/PANSTARRS,e,15.2294,134.9478,353.2595,4.058327,0.1205545,0.41644168,358.9886,08/11.0/2020,2000,g 14.5,4.0
# From MPEC 2020-C98
387P/Boattini,e,8.9171,259.3360,162.7859,4.800495,0.0937077,0.73597620,31.8449,08/11.0/2020,2000,g 15.0,4.0
# From MPEC 2020-HN5
388P/Gibbs,e,23.8607,37.0490,42.3981,5.246789,0.0820094,0.61795637,31.5272,08/11.0/2020,2000,g 13.0,4.0
# From MPC118845
389P/Siding Spring,e,160.0654,218.8500,249.2888,5.627217,0.0738352,0.70445329,16.6683,08/11.0/2020,2000,g 16.0,4.0
# From MPEC 2020-C98
390P/Gibbs,e,18.5592,152.2785,232.3419,5.799755,0.0705650,0.70692087,10.0037,08/11.0/2020,2000,g 12.0,4.0
# From MPEC 2020-AA5
391P/Kowalski,e,21.2762,124.7299,186.7121,4.676235,0.0974675,0.12083077,85.3671,08/11.0/2020,2000,g  8.0,4.0
# From MPEC 2020-HN5
392P/LINEAR,e,4.9294,24.8844,71.9911,6.149402,0.0646331,0.68286730,8.5426,08/11.0/2020,2000,g 14.5,4.0
# From MPC118845
393P/Spacewatch-Hill,e,16.7952,36.4215,328.0323,4.783838,0.0941975,0.12022269,27.5087,08/11.0/2020,2000,g 11.0,4.0
# From MPEC 2020-KB7
394P/PANSTARRS,e,8.5295,98.1254,54.5167,4.333066,0.1092725,0.36812873,27.8208,08/11.0/2020,2000,g 16.0,2.4
# From MPEC 2020-N31
395P/Catalina-NEAT,e,3.2801,223.8056,89.8418,6.523747,0.0591505,0.37697499,329.9701,08/11.0/2020,2000,g 10.0,4.0
# From MPEC 2020-KB7
396P/,e,5.4362,136.6606,8.6636,6.824471,0.0552841,0.41637112,19.2361,08/11.0/2020,2000,g 12.0,4.0
# From MPC107687
1I/`Oumuamua,h,09/09.4886/2017,122.6778,24.5997,241.6845,1.199252,0.255240,2000,23.0,2.0
# From MPEC 2020-L06
2I/Borisov,h,12/08.5549/2019,44.0527,308.1481,209.1251,3.356649,2.006550,2000,11.0,4.0
